[
    {
        "Altitude(m)": 622205.860867207,
        "Argument of Periapsis(deg)": 0.0,
        "Eccentricity": 0.0,
        "Inclination(deg)": 60.0,
        "Latitude(deg)": -52.162417134235106,
        "Longitude(deg)": 177.70027711761543,
        "Mean Anomaly(deg)": 245.4545,
        "RAAN(deg)": 50.0,
        "Satellite Name": "Test1 235",
        "Satellite Number": 235,
        "Semi-Major Axis(m)": 6980739.136638005,
        "Time(s)": 0
    },
    {
        "Altitude(m)": 622344.7678814841,
        "Argument of Periapsis(deg)": 0.00010418945913296404,
        "Eccentricity": 0.0,
        "Inclination(deg)": 60.0,
        "Latitude(deg)": -52.519997979961104,
        "Longitude(deg)": 178.4814876468056,
        "Mean Anomaly(deg)": 246.07460614546184,
        "RAAN(deg)": 49.99957995086026,
        "Satellite Name": "Test1 235",
        "Satellite Number": 235,
        "Semi-Major Axis(m)": 6980739.136638005,
        "Time(s)": 10
    }
]